KAITUO 1B               
1 40912U 15049P   17272.97837698  .00005189  00000-0  25800-3 0  9992
2 40912  97.4528 279.1272 0015170 191.0864 252.7032 15.17972146112183
TIANWANG 1C (TW-1C)     
1 40926U 15051B   17273.22354565  .00023413  00000-0  50491-3 0  9990
2 40926  97.2199 312.0165 0012818 140.4914 285.3983 15.44482967113127
TIANWANG 1B (TW-1B)     
1 40927U 15051C   17273.04895448  .00024149  00000-0  54125-3 0  9996
2 40927  97.2284 311.8139 0012206 151.5708 293.1532 15.43341163113034
TIANWANG 1A (TW-1A)     
1 40928U 15051D   17273.06232470  .00010527  00000-0  29295-3 0  9994
2 40928  97.2176 306.9865 0012611 172.6720 217.2773 15.36924682112807
LAPAN-A2 (IO-86)        
1 40931U 15052B   17273.14422175  .00001125  00000-0  67698-4 0  9995
2 40931   5.9971 204.3013 0014094 288.0391  71.8942 14.76545965108509
LQSAT                   
1 40958U 15057A   17273.20104178  .00000094  00000-0  22426-4 0  9990
2 40958  97.9686 346.6423 0019724  91.0330 269.3139 14.72988826106577
CHUBUSAT-2              
1 41338U 16012B   17273.10939429  .00000801  00000-0  56361-4 0  9990
2 41338  31.0027 165.8613 0013809  17.5879 342.5233 14.99817609 88756
CHUBUSAT-3              
1 41339U 16012C   17273.08995695  .00001293  00000-0  94692-4 0  9990
2 41339  31.0100 164.9575 0013471  24.0508 336.0737 15.00018510 88735
OUFTI-1                 
1 41458U 16025C   17272.87457898  .00004856  00000-0  26023-3 0  9990
2 41458  98.1738 316.4244 0172225 299.9432  58.4796 15.03646399 78304
E-ST@R-II               
1 41459U 16025D   17273.24019352  .00004174  00000-0  22641-3 0  9997
2 41459  98.1754 316.7391 0171300 298.8791  59.5341 15.03465508 78352
AAUSAT 4                
1 41460U 16025E   17273.17101048  .00006635  00000-0  35536-3 0  9996
2 41460  98.1699 316.8381 0163837 296.9373  61.5169 15.04526108 78371
NUSAT 1 (LO-87)         
1 41557U 16033B   17273.17512444  .00004225  00000-0  15968-3 0  9998
2 41557  97.4570 352.6789 0014011   3.8199 356.3144 15.27451120 74457
BEESAT-4                
1 41619U 16040W   17272.73429898  .00004528  00000-0  20586-3 0  9994
2 41619  97.4521 334.0744 0013452  66.8546 293.4106 15.21174910 58487
PRATHAM                 
1 41783U 16059A   17272.74518602  .00000154  00000-0  39283-4 0  9995
2 41783  98.1562 332.9782 0033459 190.8182 169.2304 14.62863067 53885
ALSAT 1N                
1 41789U 16059G   17273.19383786  .00000087  00000-0  25701-4 0  9999
2 41789  98.1567 334.1257 0028414 182.1471 177.9618 14.64080809 53978
NAYIF-1 (EO-88)         
1 42017U 17008BX  17273.15237865  .00004432  00000-0  18907-3 0  9998
2 42017  97.4848 334.3684 0005968 199.4562 160.6448 15.23429103 34467
LILACSAT-1              
1 42725U 98067ME  17273.14096375  .00033076  00000-0  43428-3 0  9998
2 42725  51.6383 233.3094 0005916 356.2546   3.8401 15.58192111 19824
MAX VALIER SAT          
1 42778U 17036P   17272.72623118  .00003170  00000-0  14753-3 0  9998
2 42778  97.4413 331.2909 0011201 259.6132 100.3841 15.20620139 14919
